{
  "type": "FeatureCollection",
  "features": [
    {
      "type": "Feature",
      "properties": {
        "norad_id": 15362,
        "name": "NOVA 3",
        "group": "nnss",
        "lat": -48.3769867248145,
        "lon": 80.55043419745465,
        "alt_km": 1164.5370303645177,
        "timestamp": "2025-12-02T08:59:32.982665+00:00",
        "meta_object_name": "NOVA 3",
        "meta_object_id": "1984-110A",
        "meta_epoch": "2025-12-02T01:02:04.583040",
        "meta_mean_motion": 13.23042528,
        "meta_eccentricity": 0.0031361,
        "meta_inclination": 90.1224,
        "meta_ra_of_asc_node": 80.4087,
        "meta_arg_of_pericenter": 1.9912,
        "meta_mean_anomaly": 171.6056,
        "meta_ephemeris_type": 0,
        "meta_classification_type": "U",
        "meta_norad_cat_id": 15362,
        "meta_element_set_no": 999,
        "meta_rev_at_epoch": 98557,
        "meta_bstar": 0.00012155,
        "meta_mean_motion_dot": 6e-07,
        "meta_mean_motion_ddot": 0,
        "tle_line1": "1 15362U 84110A   25336.04310860  .00000060  00000+0  12155-3 0  9994",
        "tle_line2": "2 15362  90.1224  80.4087 0031361   1.9912 171.6056 13.23042528985570"
      },
      "geometry": {
        "type": "Point",
        "coordinates": [
          80.55043419745465,
          -48.3769867248145
        ]
      }
    },
    {
      "type": "Feature",
      "properties": {
        "norad_id": 15935,
        "name": "OSCAR 30",
        "group": "nnss",
        "lat": -87.92154057237528,
        "lon": -84.86236294398705,
        "alt_km": 1246.2643108308184,
        "timestamp": "2025-12-02T08:59:32.982675+00:00",
        "meta_object_name": "OSCAR 30",
        "meta_object_id": "1985-066A",
        "meta_epoch": "2025-12-02T03:07:39.287712",
        "meta_mean_motion": 13.36075474,
        "meta_eccentricity": 0.0169312,
        "meta_inclination": 90.1645,
        "meta_ra_of_asc_node": 99.6738,
        "meta_arg_of_pericenter": 113.5184,
        "meta_mean_anomaly": 58.873,
        "meta_ephemeris_type": 0,
        "meta_classification_type": "U",
        "meta_norad_cat_id": 15935,
        "meta_element_set_no": 999,
        "meta_rev_at_epoch": 96311,
        "meta_bstar": 0.00018318,
        "meta_mean_motion_dot": 1.12e-06,
        "meta_mean_motion_ddot": 0,
        "tle_line1": "1 15935U 85066A   25336.13031583  .00000112  00000+0  18318-3 0  9998",
        "tle_line2": "2 15935  90.1645  99.6738 0169312 113.5184  58.8730 13.36075474963118"
      },
      "geometry": {
        "type": "Point",
        "coordinates": [
          -84.86236294398705,
          -87.92154057237528
        ]
      }
    },
    {
      "type": "Feature",
      "properties": {
        "norad_id": 15936,
        "name": "OSCAR 24",
        "group": "nnss",
        "lat": -13.810062873500804,
        "lon": 92.1660188189474,
        "alt_km": 1214.961112367745,
        "timestamp": "2025-12-02T08:59:32.982685+00:00",
        "meta_object_name": "OSCAR 24",
        "meta_object_id": "1985-066B",
        "meta_epoch": "2025-12-02T02:43:26.317056",
        "meta_mean_motion": 13.35933196,
        "meta_eccentricity": 0.0170339,
        "meta_inclination": 90.1786,
        "meta_ra_of_asc_node": 92.1175,
        "meta_arg_of_pericenter": 120.0052,
        "meta_mean_anomaly": 52.3274,
        "meta_ephemeris_type": 0,
        "meta_classification_type": "U",
        "meta_norad_cat_id": 15936,
        "meta_element_set_no": 999,
        "meta_rev_at_epoch": 96501,
        "meta_bstar": 0.00011728,
        "meta_mean_motion_dot": 7.5e-07,
        "meta_mean_motion_ddot": 0,
        "tle_line1": "1 15936U 85066B   25336.11349904  .00000075  00000+0  11728-3 0  9992",
        "tle_line2": "2 15936  90.1786  92.1175 0170339 120.0052  52.3274 13.35933196965012"
      },
      "geometry": {
        "type": "Point",
        "coordinates": [
          92.1660188189474,
          -13.810062873500804
        ]
      }
    },
    {
      "type": "Feature",
      "properties": {
        "norad_id": 17070,
        "name": "POLAR BEAR",
        "group": "nnss",
        "lat": 21.0087744236615,
        "lon": 4.041212127651976,
        "alt_km": 951.5405386212178,
        "timestamp": "2025-12-02T08:59:32.982696+00:00",
        "meta_object_name": "POLAR BEAR",
        "meta_object_id": "1986-088A",
        "meta_epoch": "2025-12-02T03:32:25.117152",
        "meta_mean_motion": 13.75247416,
        "meta_eccentricity": 0.0040177,
        "meta_inclination": 89.6181,
        "meta_ra_of_asc_node": 184.1971,
        "meta_arg_of_pericenter": 150.1394,
        "meta_mean_anomaly": 324.6411,
        "meta_ephemeris_type": 0,
        "meta_classification_type": "U",
        "meta_norad_cat_id": 17070,
        "meta_element_set_no": 999,
        "meta_rev_at_epoch": 95833,
        "meta_bstar": 0.0001285,
        "meta_mean_motion_dot": 1.35e-06,
        "meta_mean_motion_ddot": 0,
        "tle_line1": "1 17070U 86088A   25336.14751293  .00000135  00000+0  12850-3 0  9993",
        "tle_line2": "2 17070  89.6181 184.1971 0040177 150.1394 324.6411 13.75247416958332"
      },
      "geometry": {
        "type": "Point",
        "coordinates": [
          4.041212127651976,
          21.0087744236615
        ]
      }
    },
    {
      "type": "Feature",
      "properties": {
        "norad_id": 18361,
        "name": "OSCAR 27",
        "group": "nnss",
        "lat": 73.65683947790414,
        "lon": -99.83851556121405,
        "alt_km": 1148.4215636034905,
        "timestamp": "2025-12-02T08:59:32.982706+00:00",
        "meta_object_name": "OSCAR 27",
        "meta_object_id": "1987-080A",
        "meta_epoch": "2025-12-01T19:57:28.811808",
        "meta_mean_motion": 13.44903069,
        "meta_eccentricity": 0.0102278,
        "meta_inclination": 90.3742,
        "meta_ra_of_asc_node": 78.8642,
        "meta_arg_of_pericenter": 255.4763,
        "meta_mean_anomaly": 103.5022,
        "meta_ephemeris_type": 0,
        "meta_classification_type": "U",
        "meta_norad_cat_id": 18361,
        "meta_element_set_no": 999,
        "meta_rev_at_epoch": 87410,
        "meta_bstar": 0.00018081,
        "meta_mean_motion_dot": 1.17e-06,
        "meta_mean_motion_ddot": 0,
        "tle_line1": "1 18361U 87080A   25335.83158347  .00000117  00000+0  18081-3 0  9998",
        "tle_line2": "2 18361  90.3742  78.8642 0102278 255.4763 103.5022 13.44903069874105"
      },
      "geometry": {
        "type": "Point",
        "coordinates": [
          -99.83851556121405,
          73.65683947790414
        ]
      }
    },
    {
      "type": "Feature",
      "properties": {
        "norad_id": 18362,
        "name": "OSCAR 29",
        "group": "nnss",
        "lat": 44.45392447192396,
        "lon": -100.28876751480816,
        "alt_km": 1149.6744803621432,
        "timestamp": "2025-12-02T08:59:32.982716+00:00",
        "meta_object_name": "OSCAR 29",
        "meta_object_id": "1987-080B",
        "meta_epoch": "2025-12-01T20:23:05.898048",
        "meta_mean_motion": 13.44445223,
        "meta_eccentricity": 0.0103665,
        "meta_inclination": 90.3755,
        "meta_ra_of_asc_node": 79.3229,
        "meta_arg_of_pericenter": 278.8683,
        "meta_mean_anomaly": 196.3233,
        "meta_ephemeris_type": 0,
        "meta_classification_type": "U",
        "meta_norad_cat_id": 18362,
        "meta_element_set_no": 999,
        "meta_rev_at_epoch": 87363,
        "meta_bstar": 0.00015139,
        "meta_mean_motion_dot": 9.8e-07,
        "meta_mean_motion_ddot": 0,
        "tle_line1": "1 18362U 87080B   25335.84937382  .00000098  00000+0  15139-3 0  9993",
        "tle_line2": "2 18362  90.3755  79.3229 0103665 278.8683 196.3233 13.44445223873632"
      },
      "geometry": {
        "type": "Point",
        "coordinates": [
          -100.28876751480816,
          44.45392447192396
        ]
      }
    },
    {
      "type": "Feature",
      "properties": {
        "norad_id": 19070,
        "name": "OSCAR 23",
        "group": "nnss",
        "lat": 8.76965105747036,
        "lon": -163.87925758838256,
        "alt_km": 1043.3485078867725,
        "timestamp": "2025-12-02T08:59:32.982726+00:00",
        "meta_object_name": "OSCAR 23",
        "meta_object_id": "1988-033A",
        "meta_epoch": "2025-12-02T02:58:36.869376",
        "meta_mean_motion": 13.27784639,
        "meta_eccentricity": 0.0188659,
        "meta_inclination": 90.3226,
        "meta_ra_of_asc_node": 16.0631,
        "meta_arg_of_pericenter": 209.4907,
        "meta_mean_anomaly": 205.5212,
        "meta_ephemeris_type": 0,
        "meta_classification_type": "U",
        "meta_norad_cat_id": 19070,
        "meta_element_set_no": 999,
        "meta_rev_at_epoch": 82112,
        "meta_bstar": 0.00021489,
        "meta_mean_motion_dot": 1.14e-06,
        "meta_mean_motion_ddot": 0,
        "tle_line1": "1 19070U 88033A   25336.12403784  .00000114  00000+0  21489-3 0  9999",
        "tle_line2": "2 19070  90.3226  16.0631 0188659 209.4907 205.5212 13.27784639821127"
      },
      "geometry": {
        "type": "Point",
        "coordinates": [
          -163.87925758838256,
          8.76965105747036
        ]
      }
    }
  ]
}